NORAD_CAT_ID,OBJECT_NAME,OBJECT_TYPE,EPOCH,MEAN_MOTION,ECCENTRICITY,INCLINATION,RA_OF_ASC_NODE,ARG_OF_PERICENTER,MEAN_ANOMALY,BSTAR,MEAN_MOTION_DOT,MEAN_MOTION_DDOT,TLE_LINE0,TLE_LINE1,TLE_LINE2,SEMIMAJOR_AXIS,PERIOD,APOGEE,PERIGEE,DECAYED
53931.0,STARLINK-5015,PAYLOAD,2023-02-22 00:20:09,15.08852421,0.00012,53.2186,249.3662,77.591,282.5217,3.1886e-05,2.2e-06,0.0,0 STARLINK-5015,1 53931U 22119AX  23053.01400230  .00000220  00000-0  31886-4 0  9993,2 53931  53.2186 249.3662 0001200  77.5910 282.5217 15.08852421 23796,6917.842,95.437,540.538,538.877,0.0
53931.0,STARLINK-5015,PAYLOAD,2023-02-22 13:03:15,15.08838864,0.0001645,53.2184,246.9876,80.836,279.2819,-9.4655e-06,-4.39e-06,0.0,0 STARLINK-5015,1 53931U 22119AX  23053.54393303 -.00000439  00000-0 -94655-5 0  9991,2 53931  53.2184 246.9876 0001645  80.8360 279.2819 15.08838864 24295,6917.884,95.438,540.887,538.611,0.0
53931.0,STARLINK-5015,PAYLOAD,2023-02-22 19:24:48,15.08840767,0.0001491,53.218,245.7973,89.35,270.7663,-3.9779e-05,-9.21e-06,0.0,0 STARLINK-5015,1 53931U 22119AX  23053.80889168 -.00000921  00000-0 -39779-4 0  9990,2 53931  53.2180 245.7973 0001491  89.3500 270.7663 15.08840767 23911,6917.878,95.438,540.775,538.712,0.0
53931.0,STARLINK-5015,PAYLOAD,2023-02-23 12:54:02,15.08837411,0.0001234,53.2188,242.5263,90.1281,269.9853,8.0739e-06,-1.59e-06,0.0,0 STARLINK-5015,1 53931U 22119AX  23054.53753150 -.00000159  00000-0  80739-5 0  9997,2 53931  53.2188 242.5263 0001234  90.1281 269.9853 15.08837411 24449,6917.888,95.438,540.607,538.9,0.0
53931.0,STARLINK-5015,PAYLOAD,2023-02-23 19:15:34,15.08842466,0.0001167,53.2189,241.3369,89.3498,270.7628,4.9103e-05,4.94e-06,0.0,0 STARLINK-5015,1 53931U 22119AX  23054.80248704  .00000494  00000-0  49103-4 0  9991,2 53931  53.2189 241.3369 0001167  89.3498 270.7628 15.08842466 24489,6917.873,95.437,540.545,538.931,0.0
53931.0,STARLINK-5015,PAYLOAD,2023-02-24 00:01:44,15.08847378,0.0001162,53.2192,240.4452,87.39,272.7225,4.7786e-05,4.73e-06,0.0,0 STARLINK-5015,1 53931U 22119AX  23055.00120409  .00000473  00000-0  47786-4 0  9997,2 53931  53.2192 240.4452 0001162  87.3900 272.7225 15.08847378 24096,6917.858,95.437,540.527,538.919,0.0
53931.0,STARLINK-5015,PAYLOAD,2023-02-24 12:44:50,15.08830677,0.0001076,53.2188,238.066,93.4881,266.6234,3.5523e-05,2.77e-06,0.0,0 STARLINK-5015,1 53931U 22119AX  23055.53113595  .00000277  00000-0  35523-4 0  9991,2 53931  53.2188 238.0660 0001076  93.4881 266.6234 15.08830677 24170,6917.909,95.438,540.518,539.03,0.0
53931.0,STARLINK-5015,PAYLOAD,2023-02-24 19:06:22,15.08836401,0.0001089,53.2188,236.8767,91.4123,268.6994,4.867e-05,4.87e-06,0.0,0 STARLINK-5015,1 53931U 22119AX  23055.79609330  .00000487  00000-0  48670-4 0  9996,2 53931  53.2188 236.8767 0001089  91.4123 268.6994 15.08836401 24632,6917.891,95.438,540.51,539.003,0.0
53931.0,STARLINK-5015,PAYLOAD,2023-02-25 04:38:41,15.088365,9.85e-05,53.2191,235.0931,87.7715,272.339,3.123e-05,2.09e-06,0.0,0 STARLINK-5015,1 53931U 22119AX  23056.19353499  .00000209  00000-0  31230-4 0  9999,2 53931  53.2191 235.0931 0000985  87.7715 272.3390 15.08836500 24697,6917.891,95.438,540.437,539.075,0.0
53931.0,STARLINK-5015,PAYLOAD,2023-02-25 18:57:09,15.08837767,0.0001129,53.2197,232.4169,91.9149,268.1973,-1.0598e-05,-4.56e-06,0.0,0 STARLINK-5015,1 53931U 22119AX  23056.78969792 -.00000456  00000-0 -10598-4 0  9993,2 53931  53.2197 232.4169 0001129  91.9149 268.1973 15.08837767 24366,6917.887,95.438,540.533,538.971,0.0
53931.0,STARLINK-5015,PAYLOAD,2023-02-25 20:32:32,15.08839069,0.0001145,53.2199,232.1196,91.0473,269.0651,1.1789e-06,-2.69e-06,0.0,0 STARLINK-5015,1 53931U 22119AX  23056.85593716 -.00000269  00000-0  11789-5 0  9995,2 53931  53.2199 232.1196 0001145  91.0473 269.0651 15.08839069 24791,6917.883,95.438,540.54,538.956,0.0
53931.0,STARLINK-5015,PAYLOAD,2023-02-26 04:29:28,15.08841423,0.0001215,53.2205,230.6333,91.6205,268.4926,3.27e-05,2.33e-06,0.0,0 STARLINK-5015,1 53931U 22119AX  23057.18713544  .00000233  00000-0  32700-4 0  9990,2 53931  53.2205 230.6333 0001215  91.6205 268.4926 15.08841423 24843,6917.876,95.437,540.582,538.901,0.0
53931.0,STARLINK-5015,PAYLOAD,2023-02-26 15:37:09,15.08846447,0.0001136,53.2206,228.552,92.2542,267.858,0.00014799,2.069e-05,0.0,0 STARLINK-5015,1 53931U 22119AX  23057.65080887  .00002069  00000-0  14799-3 0  9995,2 53931  53.2206 228.5520 0001136  92.2542 267.8580 15.08846447 24492,6917.861,95.437,540.512,538.94,0.0
53931.0,STARLINK-5015,PAYLOAD,2023-02-26 20:23:18,15.08852402,0.0001146,53.2206,227.6599,91.1605,268.9518,0.00016938,2.41e-05,0.0,0 STARLINK-5015,1 53931U 22119AX  23057.84952372  .00002410  00000-0  16938-3 0  9990,2 53931  53.2206 227.6599 0001146  91.1605 268.9518 15.08852402 24948,6917.842,95.437,540.5,538.915,0.0
53931.0,STARLINK-5015,PAYLOAD,2023-02-27 04:20:15,15.08837623,0.0001372,53.2206,226.1732,77.6006,282.514,4.2161e-05,3.83e-06,0.0,0 STARLINK-5015,1 53931U 22119AX  23058.18073849  .00000383  00000-0  42161-4 0  9996,2 53931  53.2206 226.1732 0001372  77.6006 282.5140 15.08837623 24576,6917.888,95.438,540.702,538.804,0.0
53931.0,STARLINK-5015,PAYLOAD,2023-02-27 17:03:20,15.08845589,0.0001303,53.2202,223.7941,76.0164,284.0973,0.00016684,2.369e-05,0.0,0 STARLINK-5015,1 53931U 22119AX  23058.71065183  .00002369  00000-0  16684-3 0  9993,2 53931  53.2202 223.7941 0001303  76.0164 284.0973 15.08845589 24659,6917.863,95.437,540.63,538.827,0.0
53931.0,STARLINK-5015,PAYLOAD,2023-02-27 20:14:06,15.08847733,0.0001292,53.2204,223.1992,75.1472,284.9663,0.00014012,1.943e-05,0.0,0 STARLINK-5015,1 53931U 22119AX  23058.84313126  .00001943  00000-0  14012-3 0  9990,2 53931  53.2204 223.1992 0001292  75.1472 284.9663 15.08847733 25097,6917.857,95.437,540.616,538.828,0.0
53931.0,STARLINK-5015,PAYLOAD,2023-02-28 10:32:35,15.08839063,0.0001493,53.2194,220.5241,77.6548,282.4611,-3.5617e-05,-8.55e-06,0.0,0 STARLINK-5015,1 53931U 22119AX  23059.43929713 -.00000855  00000-0 -35617-4 0  9999,2 53931  53.2194 220.5241 0001493  77.6548 282.4611 15.08839063 24763,6917.883,95.438,540.781,538.715,0.0
53931.0,STARLINK-5015,PAYLOAD,2023-02-28 20:04:53,15.08843177,0.0001162,53.2191,218.739,85.1662,274.9463,-1.8485e-06,-3.17e-06,0.0,0 STARLINK-5015,1 53931U 22119AX  23059.83673465 -.00000317  00000-0 -18485-5 0  9991,2 53931  53.2191 218.7390 0001162  85.1662 274.9463 15.08843177 25244,6917.871,95.437,540.54,538.932,0.0
53931.0,STARLINK-5015,PAYLOAD,2023-03-01 16:44:55,15.08832267,0.0001282,53.2179,214.8727,81.4031,278.7106,5.8847e-05,6.49e-06,0.0,0 STARLINK-5015,1 53931U 22119AX  23060.69786516  .00000649  00000-0  58847-4 0  9990,2 53931  53.2179 214.8727 0001282  81.4031 278.7106 15.08832267 24954,6917.904,95.438,540.656,538.882,0.0
53931.0,STARLINK-5015,PAYLOAD,2023-03-02 18:11:05,15.0885311,0.0001195,53.2195,210.1162,87.9741,272.1388,0.00034381,5.19e-05,0.0,0 STARLINK-5015,1 53931U 22119AX  23061.75769767  .00005190  00000-0  34381-3 0  9999,2 53931  53.2195 210.1162 0001195  87.9741 272.1388 15.08853110 25115,6917.84,95.437,540.532,538.879,0.0
53931.0,STARLINK-5015,PAYLOAD,2023-03-02 21:21:51,15.08861846,0.0001083,53.2191,209.5219,80.9393,279.1722,0.0005799,8.959e-05,0.0,0 STARLINK-5015,1 53931U 22119AX  23061.89017404  .00008959  00000-0  57990-3 0  9995,2 53931  53.2191 209.5219 0001083  80.9393 279.1722 15.08861846 25134,6917.814,95.436,540.428,538.929,0.0
53931.0,STARLINK-5015,PAYLOAD,2023-03-03 11:40:19,15.08849904,0.000134,53.2176,206.8439,102.8082,257.306,0.00026273,3.897e-05,0.0,0 STARLINK-5015,1 53931U 22119AX  23062.48633990  .00003897  00000-0  26273-3 0  9991,2 53931  53.2176 206.8439 0001340 102.8082 257.3060 15.08849904 25220,6917.85,95.437,540.642,538.788,0.0
53931.0,STARLINK-5015,PAYLOAD,2023-03-03 18:01:51,15.08876712,0.0001172,53.2188,205.6564,96.4037,263.7089,0.001285,0.00020242,0.0,0 STARLINK-5015,1 53931U 22119AX  23062.75129258  .00020242  00000-0  12850-2 0  9996,2 53931  53.2188 205.6564 0001172  96.4037 263.7089 15.08876712 25263,6917.768,95.435,540.444,538.822,0.0
53931.0,STARLINK-5015,PAYLOAD,2023-03-03 21:12:37,15.08889328,0.0001039,53.2186,205.0617,96.6823,263.4288,0.0024444,0.00038882,0.0,0 STARLINK-5015,1 53931U 22119AX  23062.88376977  .00038882  00000-0  24444-2 0  9993,2 53931  53.2186 205.0617 0001039  96.6823 263.4288 15.08889328 25705,6917.73,95.434,540.313,538.876,0.0
53931.0,STARLINK-5015,PAYLOAD,2023-03-04 01:58:47,15.08834101,0.0001359,53.2181,204.1687,103.4139,256.7005,-0.00082827,-0.00013443,0.0,0 STARLINK-5015,1 53931U 22119AX  23063.08249666 -.00013443  00000-0 -82827-3 0  9998,2 53931  53.2181 204.1687 0001359 103.4139 256.7005 15.08834101 25317,6917.898,95.438,540.704,538.823,0.0
53931.0,STARLINK-5015,PAYLOAD,2023-03-04 09:55:43,15.08843832,9.01e-05,53.2191,202.6827,121.2166,238.8914,0.00066427,0.00010301,0.0,0 STARLINK-5015,1 53931U 22119AX  23063.41369650  .00010301  00000-0  66427-3 0  9997,2 53931  53.2191 202.6827 0000901 121.2166 238.8914 15.08843832 25363,6917.869,95.437,540.357,539.11,0.0
53931.0,STARLINK-5015,PAYLOAD,2023-03-04 13:06:29,15.08851341,0.000124,53.2193,202.088,114.0162,246.096,0.0018795,0.0002976,0.0,0 STARLINK-5015,1 53931U 22119AX  23063.54617743  .00029760  00000-0  18795-2 0  9993,2 53931  53.2193 202.0880 0001240 114.0162 246.0960 15.08851341 25806,6917.846,95.437,540.569,538.853,0.0
53931.0,STARLINK-5015,PAYLOAD,2023-03-04 17:52:38,15.08866619,0.000115,53.2189,201.196,110.7835,249.3281,0.0027271,0.00043413,0.0,0 STARLINK-5015,1 53931U 22119AX  23063.74489529  .00043413  00000-0  27271-2 0  9994,2 53931  53.2189 201.1960 0001150 110.7835 249.3281 15.08866619 25413,6917.799,95.436,540.46,538.868,0.0
53931.0,STARLINK-5015,PAYLOAD,2023-03-04 21:03:25,15.08874213,0.0001234,53.2189,200.6011,111.3535,248.7589,0.0027059,0.0004308,0.0,0 STARLINK-5015,1 53931U 22119AX  23063.87737317  .00043080  00000-0  27059-2 0  9993,2 53931  53.2189 200.6011 0001234 111.3535 248.7589 15.08874213 25852,6917.776,95.435,540.494,538.787,0.0
